NUSHSAT1                
1 63211U 25052B   26068.64700493  .00023034  00000+0  74857-3 0  9997
2 63211  97.4095 325.7239 0005501  84.7512 275.4357 15.31903202 54882
STARLINK-34552          
1 64731U 25144H   26068.61678928  .00035644  00000+0  12103-2 0  9996
2 64731  53.1592 181.1704 0001213  73.7979 286.3155 15.30186444 39704
